{
  "norad_id": 67322,
  "name": "STARLINK-36434",
  "history": [
    {
      "epoch": "2026-03-28T15:21:48.566880Z",
      "apogee_km": 483.5445128299689,
      "perigee_km": 482.3493120124258,
      "latitude_deg": 8.569441156369983e-06,
      "longitude_deg": 162.03285516716576,
      "height_km": 482.7484480712868,
      "semi_major_axis_km": 6861.083912421197,
      "eccentricity": 8.71e-05,
      "inclination_deg": 42.9988,
      "raan_deg": 218.5429,
      "arg_perigee_deg": 267.5608,
      "mean_anomaly_deg": 92.5144,
      "mean_motion_rev_day": 15.27614126
    }
  ]
}